#dP2024  1  6  0  0  0.00000000      96 __u+U IGS20 EXT  IAC
## 2295 518400.00000000   900.00000000 60315 0.0000000000000
+  117   C06C07C08C09C10C11C12C13C14C16C19C20C21C22C23C24C25
+        C26C27C28C29C30C32C33C34C35C36C37C38C39C40C41C42C43
+        C44C45C46E02E03E04E05E07E08E09E10E11E12E13E14E15E18
+        E19E21E24E25E26E27E30E31E33E34E36G01G02G04G05G06G07
+        G08G09G10G11G12G13G14G15G16G17G18G19G20G21G22G23G24
+        G25G26G28G29G30G31G32J02J03J04R01R02R03R04R05R07R08
+        R09R11R12R13R14R15R16R17R18R19R20R21R22R24R25  0  0
++        10  9 11  8  8  8  9 10  9 10  9  9  8  7  9  7  7
++         9  8  7  8  7  7  8  9  8  9  8 10  7  9  9  9  9
++         8  6  8  8  7  7  6  7  8  8  7  7  6  7  7  6  8
++         9  8  7  6  7  8  7  8  7  7  7  6  8  7  7  7  7
++         8  7  6  6  6  7  7  7  8  7  6  8  7  8  6  7  8
++         6  7  6  9  7  6  7  9  0  9  8  7  9  9  9  7  7
++         8  7  7  7  7  8 10  7  8  8  9  7  8  7  8  0  0
%c M  cc GPS ccc cccc cccc cccc cccc ccccc ccccc ccccc ccccc
%c cc cc ccc ccc cccc cccc cccc cccc ccccc ccccc ccccc ccccc
%f  0.0000000  0.000000000  0.00000000000  0.000000000000000
%f  0.0000000  0.000000000  0.00000000000  0.000000000000000
%i    0    0    0    0      0      0      0      0         0
%i    0    0    0    0      0      0      0      0         0
/* IAC                                ULTRA-RAPID PREDICTION
/* S/V CLOCKS ARE ALIGNED TO GNSS TIME                      
/* G:C1WC2W R:C1PC2P E:C1XC5X C:C2IC6I J:C1CC2S             
/* PCV:IGS20_2290 OL/AL:FES2004  NONE     YN ORB:CoN CLK:CoN
*  2024 01 06 18 30  0.00000000
PC06 -19667.476881  30674.581784 -21426.654366     32.912626
PC07  -4173.778537  39708.185406 -13123.198896   -595.195822
PC08  -1465.010716  21468.324177  36280.813777    130.759844
PC09 -10446.474231  29230.841414 -28369.676220   -317.521189
PC10   1008.501593  41061.687726  -7800.674241    136.291757
PC11  18277.069536 -21089.842932   -402.426205    344.697448
PC12  21160.758699  -7709.980587  16523.120108    803.933158
PC13   5059.470546  24655.231761  34064.780281    404.539451
PC14   7736.753842 -17913.239197 -19956.445554    -89.657453
PC16 -20296.856022  30388.621882 -21084.316475   -266.890797
PC19   -886.889617  24224.184064  13834.536122   -941.396610
PC20 -12501.543749  10353.956259  22706.445328    -40.660983
PC21  17576.701400  11102.199779 -18592.848291   -964.900960
PC22  11909.507954  24972.238913  -3570.646794   -157.761439
PC23 -12994.114953 -15960.053942  18836.328585   -793.496693
PC24  24325.123297  -5236.179495  12641.562828    764.597460
PC25   6899.833556 -15263.835432  22306.741427    295.634008
PC26  26900.154379   6523.465537  -3721.809830   -230.959085
PC27 -18382.732514   -905.719959 -20995.498160    252.967701
PC28  -6379.920435 -16162.040451 -21827.879221    191.772416
PC29 -10883.520671  24162.252745   8751.233908    224.622854
PC30 -20793.194274  16044.616414  -9471.760833    -13.416628
PC32 -17690.144614 -11071.762432  18544.658368   -550.630483
PC33    789.215645 -24205.672644 -13870.594924   -942.426876
PC34  20477.728287 -17122.888479   8089.028490    341.377662
PC35   7000.940816  16002.906883  21762.497204    463.391134
PC36  -7984.886879  14897.593682 -22190.616407    -62.985327
PC37 -26539.862774  -7456.237707   4236.192965   -931.499103
PC38 -11067.306272  19942.116393  35506.058744    128.801195
PC39 -24587.551478  31041.930640 -14737.691164     -6.515069
PC40  -9622.896161  37118.208271 -17210.664077    -50.969628
PC41 -11633.313095 -25214.808533   2849.939721   -877.781066
PC42  13288.426139  -8771.594122 -22876.717656   -469.414900
PC43  11552.622758 -24127.387060  -7911.430474     55.337669
PC44  18394.302235    493.059509  20959.906282    345.758630
PC45  13402.980000  15817.321503 -18703.217286    -61.064119
PC46 -23672.739147   5824.453467 -13554.220112   -113.526521
PE02  16436.854026  -6914.843767  23620.886027     92.861327
PE03  16012.388712 -18586.617662 -16573.213152    -85.230340
PE04  -5787.722853  29016.117326   -938.063647   -297.495935
PE05  16803.505776   2533.914104 -24236.136039   4707.778733
PE07  -7512.767794 -22647.692094  17519.516036    -97.010043
PE08   6195.067748 -28946.029018    317.831691   -203.879317
PE09   7349.865224  22705.411212 -17506.991846   -290.018095
PE10   1398.013501  16219.570702  24722.201199   -592.115443
PE11  13092.192758  11966.964636  23691.875109   3280.627496
PE12  -9248.461002  17699.956380  21859.415363   -851.242944
PE13 -12373.477756 -12234.471156 -23936.029096    -19.837587
PE14   3303.151056  20826.935775  10323.203196      3.015110
PE15   9813.898180 -17645.423328 -21629.437647    -78.747614
PE18  -5901.153223 -27668.855417 -15912.431639    180.717152
PE19 -16628.246192  16383.043600  18208.485178   -865.089976
PE21 -24442.577056 -10323.935595 -13117.308534   -572.571351
PE24  18193.787512  22603.778175  -5949.304339   -527.469328
PE25  24478.510303  10669.160887  12785.485015     -0.893006
PE26 -27230.565298    616.452238 -11576.827902    331.608559
PE27 -18556.805445 -22379.365183   5516.309731   -242.796951
PE30  -1434.292337 -21011.035465  20777.324305   -803.054859
PE31   1816.366879  21110.160628 -20673.769378    -13.216370
PE33 -26181.900902  12361.128940   6156.047623      5.505512
PE34  25897.364600 -12686.008444  -6689.234391    -87.523765
PE36  26952.769492   -220.090074  12233.232380   -168.159067
PG01  -2401.005209 -14607.051733 -22389.434407    165.431149
PG02   5277.827272 -16680.149723 -19414.135666   -504.759162
PG04    365.162902 -25138.026897   8362.391238    259.260009
PG05  -3637.025532  15642.932579  20963.607107   -156.967387
PG06 -25760.073876   6126.730642  -2618.025906    453.739270
PG07 -17473.179160  -8517.745353  18784.400229    -30.783087
PG08   4991.432838 -25845.819333    347.942519   -160.766820
PG09  -9014.712027 -17860.544682  17355.403097     50.414275
PG10  21815.361660   8210.905933 -12834.306588    -68.275600
PG11 -22167.001506  11952.792687   8384.653076   -530.003536
PG12   5722.756077  21237.257090 -15225.313849   -465.197084
PG13 -13483.591803  21326.166983   7728.641896    613.245808
PG14 -22033.673982 -11273.634302  -9856.909440    291.515716
PG15  -1775.493474  26376.821075     85.661611    114.545277
PG16  11056.333746 -10151.208959  21584.467682   -389.470302
PG17 -14207.699583  -4089.854501 -21634.371371    720.485001
PG18  18351.793144   7176.910708  17910.252897   -525.583087
PG19 -16391.587244   5363.357956 -20287.174349    422.894298
PG20 -15620.613892   7198.439852  20252.630081    392.859137
PG21   9246.141811 -16983.072755 -17259.766878    139.245531
PG22 -20095.472554  -5538.241921 -15854.501625     52.808588
PG23  20861.923522  16537.623454  -1490.711689    130.225670
PG24  -5356.068843  17785.998904 -19242.575590   -408.726538
PG25  16229.242700  20324.983147  -6387.540453    484.316661
PG26  18599.458248  -3117.516305  18694.365486    202.743300
PG28  25477.250641  -4930.024703  -5669.739371    -90.974906
PG29   6378.218558  19251.875392  17050.306451   -609.025902
PG30 -24322.264729   -863.574421  11071.664571   -448.627903
PG31  24745.352491  -9679.553978   3148.232829   -227.127116
PG32  15341.492895   -164.830591 -21470.535144   -602.987653
PJ02 -22889.305388  18614.184886 -25495.976346     -0.997357
PJ03 -28376.677554  30468.896625  11376.460426     -0.130261
PJ04 -25254.167651  28450.637692  24050.672434     76.106728
PR01   7950.321963  23380.218937  -6377.141602     73.918170
PR02  11353.549841  10593.880590 -20216.012050    -22.375975
PR03   9059.080609  -8564.113003 -22197.277339     92.298247
PR04   1821.947868 -22418.442558 -11984.223123    218.379677
PR05  -6266.020915 -24258.729939   4717.096803    124.958073
PR07  -8795.807352   9556.747179  22004.496099     72.993975
PR08  -1655.560101  22566.056783  11875.483974    -73.925332
PR09 -24241.136087  -8068.960154    307.651358    162.930176
PR11  -5977.293158   9453.713761 -22920.479664   -225.868706
PR12  13995.804861  13392.577239 -16588.708451     35.304158
PR13  23571.839704   9392.043423  -2669.614384    -43.028168
PR14  20011.812018  -1193.082806  15767.157897     25.898268
PR15   4556.051387 -10122.111156  22977.748394     83.318717
PR16 -13840.225864 -13233.075569  16871.321568     22.235878
PR17  20696.368339 -13706.156500   5969.001887     50.031552
PR18  14589.325419 -18027.527872 -10541.004290    120.753079
PR19   2846.342603 -14034.656058 -21102.382684   -261.066904
PR20 -15178.419721    104.011960 -20498.606080   -106.335348
PR21 -20727.139466  13787.571297  -5501.006318    -66.855906
PR22 -14287.810177  17792.410629  11446.345649    101.882160
PR24  15765.919201   -809.032126  20063.351588    -38.865720
PR25 -21269.330881  12800.721223  -5817.583756     19.536476
EOF
